[{"OBJECT_NAME":"TIANMU-1 19","OBJECT_ID":"2023-208A","EPOCH":"2026-03-09T22:13:36.801696","MEAN_MOTION":15.2984143,"ECCENTRICITY":0.00039292,"INCLINATION":97.4383,"RA_OF_ASC_NODE":184.9132,"ARG_OF_PERICENTER":316.2611,"MEAN_ANOMALY":43.8317,"EPHEMERIS_TYPE":0,"CLASSIFICATION_TYPE":"U","NORAD_CAT_ID":58660,"ELEMENT_SET_NO":999,"REV_AT_EPOCH":12214,"BSTAR":0.00040995676,"MEAN_MOTION_DOT":0.00011779,"MEAN_MOTION_DDOT":0},{"OBJECT_NAME":"STARLINK-31415","OBJECT_ID":"2024-064X","EPOCH":"2026-03-09T09:06:37.998144","MEAN_MOTION":15.27551982,"ECCENTRICITY":0.00016163,"INCLINATION":43.0031,"RA_OF_ASC_NODE":58.3276,"ARG_OF_PERICENTER":276.0398,"MEAN_ANOMALY":84.0269,"EPHEMERIS_TYPE":0,"CLASSIFICATION_TYPE":"U","NORAD_CAT_ID":59419,"ELEMENT_SET_NO":999,"REV_AT_EPOCH":10917,"BSTAR":-0.00011879545,"MEAN_MOTION_DOT":-3.527e-5,"MEAN_MOTION_DDOT":0}]
